[{"OBJECT_NAME":"STARLINK-2361","OBJECT_ID":"2021-021AT","EPOCH":"2026-03-09T17:04:09.940224","MEAN_MOTION":15.30175875,"ECCENTRICITY":0.00013529,"INCLINATION":53.1601,"RA_OF_ASC_NODE":255.2953,"ARG_OF_PERICENTER":53.482,"MEAN_ANOMALY":306.6305,"EPHEMERIS_TYPE":0,"CLASSIFICATION_TYPE":"U","NORAD_CAT_ID":47901,"ELEMENT_SET_NO":999,"REV_AT_EPOCH":27642,"BSTAR":-0.00017566341,"MEAN_MOTION_DOT":-5.554e-5,"MEAN_MOTION_DDOT":0},{"OBJECT_NAME":"TEVEL2-2","OBJECT_ID":"2025-052K","EPOCH":"2026-03-09T15:33:48.895776","MEAN_MOTION":15.30343745,"ECCENTRICITY":0.0004693,"INCLINATION":97.3987,"RA_OF_ASC_NODE":324.77,"ARG_OF_PERICENTER":105.793,"MEAN_ANOMALY":254.3828,"EPHEMERIS_TYPE":0,"CLASSIFICATION_TYPE":"U","NORAD_CAT_ID":63219,"ELEMENT_SET_NO":999,"REV_AT_EPOCH":5485,"BSTAR":0.00069428,"MEAN_MOTION_DOT":0.00020339,"MEAN_MOTION_DDOT":0}]
